{
  "type": "FeatureCollection",
  "features": [
    {
      "type": "Feature",
      "properties": {
        "id": "usa",
        "name": "United States",
        "type": "republic",
        "valid_from": "1886-01-01",
        "valid_to": "9999-12-31",
        "status": "independent",
        "certainty": "high",
        "capital": "Washington D.C.",
        "source": "Natural Earth",
        "description": "Federal republic in North America."
      },
      "geometry": {
        "type": "Polygon",
        "coordinates": [[
          [-124, 48.5], [-123, 49], [-95, 49], [-76, 45], [-67, 47],
          [-67, 44], [-69, 42], [-71, 41], [-74, 40], [-75, 38],
          [-76, 37], [-81, 30], [-81, 25], [-87, 24], [-97, 26],
          [-97, 28], [-100, 29], [-104, 29], [-109, 31], [-111, 31],
          [-117, 32], [-118, 34], [-120, 34], [-122, 37], [-124, 38],
          [-124, 48.5]
        ]]
      }
    },
    {
      "type": "Feature",
      "properties": {
        "id": "russian_empire",
        "name": "Russian Empire",
        "type": "empire",
        "valid_from": "1886-01-01",
        "valid_to": "1917-12-31",
        "status": "independent",
        "certainty": "high",
        "capital": "Saint Petersburg",
        "source": "CShapes 2.0",
        "successor": "Soviet Union",
        "description": "Imperial Russia, spanning from Eastern Europe to the Pacific Ocean."
      },
      "geometry": {
        "type": "Polygon",
        "coordinates": [[
          [22, 55], [26, 60], [28, 70], [40, 72], [60, 73], [90, 73],
          [130, 72], [160, 68], [180, 65], [180, 52], [165, 50],
          [142, 48], [135, 45], [130, 42], [60, 38], [44, 40],
          [40, 38], [36, 42], [28, 45], [22, 50], [22, 55]
        ]]
      }
    },
    {
      "type": "Feature",
      "properties": {
        "id": "ussr",
        "name": "Soviet Union",
        "type": "federation",
        "valid_from": "1922-01-01",
        "valid_to": "1991-12-31",
        "status": "independent",
        "certainty": "high",
        "capital": "Moscow",
        "source": "CShapes 2.0",
        "predecessor": "Russian Empire",
        "successor": "Russia",
        "description": "Union of Soviet Socialist Republics, spanning Eurasia."
      },
      "geometry": {
        "type": "Polygon",
        "coordinates": [[
          [22, 54], [24, 58], [27, 70], [42, 72], [62, 73], [90, 73],
          [130, 72], [160, 68], [180, 65], [180, 52], [165, 50],
          [142, 48], [135, 45], [130, 42], [58, 36], [44, 38],
          [36, 40], [26, 42], [22, 48], [22, 54]
        ]]
      }
    },
    {
      "type": "Feature",
      "properties": {
        "id": "russia",
        "name": "Russian Federation",
        "type": "federation",
        "valid_from": "1992-01-01",
        "valid_to": "9999-12-31",
        "status": "independent",
        "certainty": "high",
        "capital": "Moscow",
        "source": "Natural Earth",
        "predecessor": "Soviet Union",
        "description": "Successor state to the USSR, largest country by area."
      },
      "geometry": {
        "type": "Polygon",
        "coordinates": [[
          [27, 55], [28, 60], [30, 69], [44, 72], [64, 73], [90, 73],
          [130, 72], [160, 68], [180, 65], [180, 52], [165, 50],
          [142, 48], [135, 45], [132, 43], [60, 42], [52, 46],
          [44, 42], [36, 46], [30, 52], [27, 55]
        ]]
      }
    },
    {
      "type": "Feature",
      "properties": {
        "id": "german_empire",
        "name": "German Empire",
        "type": "empire",
        "valid_from": "1886-01-01",
        "valid_to": "1918-12-31",
        "status": "independent",
        "certainty": "high",
        "capital": "Berlin",
        "source": "CShapes 2.0",
        "successor": "Weimar Republic",
        "description": "Imperial Germany, from unification to WWI defeat."
      },
      "geometry": {
        "type": "Polygon",
        "coordinates": [[
          [6, 47], [8, 48], [12, 48], [14, 48], [18, 50], [22, 54],
          [24, 55], [14, 55], [8, 55], [6, 54], [6, 51], [6, 47]
        ]]
      }
    },
    {
      "type": "Feature",
      "properties": {
        "id": "weimar_germany",
        "name": "Germany",
        "type": "republic",
        "valid_from": "1919-01-01",
        "valid_to": "9999-12-31",
        "status": "independent",
        "certainty": "high",
        "capital": "Berlin",
        "source": "CShapes 2.0 / Natural Earth",
        "predecessor": "German Empire",
        "description": "Germany after WWI — Weimar Republic, then Third Reich, then modern Federal Republic."
      },
      "geometry": {
        "type": "Polygon",
        "coordinates": [[
          [6, 47], [9, 48], [12, 48], [13, 48], [15, 50], [15, 54],
          [14, 55], [9, 55], [6, 54], [6, 51], [6, 47]
        ]]
      }
    },
    {
      "type": "Feature",
      "properties": {
        "id": "ottoman_empire",
        "name": "Ottoman Empire",
        "type": "empire",
        "valid_from": "1886-01-01",
        "valid_to": "1918-12-31",
        "status": "independent",
        "certainty": "high",
        "capital": "Constantinople",
        "source": "CShapes 2.0",
        "successor": "Turkey",
        "description": "The Ottoman Empire at its late-era extent, spanning Anatolia, the Middle East, and the Balkans."
      },
      "geometry": {
        "type": "Polygon",
        "coordinates": [[
          [26, 40], [30, 42], [36, 42], [38, 38], [42, 38], [44, 37],
          [45, 33], [38, 30], [36, 29], [32, 24], [26, 30],
          [26, 36], [26, 40]
        ]]
      }
    },
    {
      "type": "Feature",
      "properties": {
        "id": "turkey",
        "name": "Turkey",
        "type": "republic",
        "valid_from": "1923-01-01",
        "valid_to": "9999-12-31",
        "status": "independent",
        "certainty": "high",
        "capital": "Ankara",
        "source": "Natural Earth",
        "predecessor": "Ottoman Empire",
        "description": "Republic of Turkey, established 1923 from the remnants of the Ottoman Empire."
      },
      "geometry": {
        "type": "Polygon",
        "coordinates": [[
          [26, 36], [28, 38], [30, 40], [36, 42], [42, 40], [44, 38],
          [44, 36], [38, 36], [32, 36], [26, 36]
        ]]
      }
    },
    {
      "type": "Feature",
      "properties": {
        "id": "austria_hungary",
        "name": "Austria-Hungary",
        "type": "empire",
        "valid_from": "1886-01-01",
        "valid_to": "1918-12-31",
        "status": "independent",
        "certainty": "high",
        "capital": "Vienna",
        "source": "CShapes 2.0",
        "successor": "Austria",
        "description": "Dual monarchy spanning Central Europe until its collapse in WWI."
      },
      "geometry": {
        "type": "Polygon",
        "coordinates": [[
          [9, 44], [12, 44], [16, 44], [20, 44], [26, 46], [26, 50],
          [18, 51], [14, 51], [10, 50], [9, 48], [9, 44]
        ]]
      }
    },
    {
      "type": "Feature",
      "properties": {
        "id": "british_india",
        "name": "British India",
        "type": "colony",
        "valid_from": "1886-01-01",
        "valid_to": "1947-12-31",
        "status": "colonial",
        "certainty": "high",
        "capital": "Calcutta / New Delhi",
        "source": "CShapes 2.0",
        "successor": "India",
        "description": "The British Raj: the Indian subcontinent under British Crown rule."
      },
      "geometry": {
        "type": "Polygon",
        "coordinates": [[
          [60, 22], [67, 23], [68, 20], [70, 8], [77, 8], [80, 8],
          [82, 8], [80, 14], [80, 22], [86, 23], [92, 22], [97, 28],
          [97, 32], [77, 34], [76, 36], [72, 34], [68, 30], [62, 26],
          [60, 22]
        ]]
      }
    },
    {
      "type": "Feature",
      "properties": {
        "id": "india",
        "name": "India",
        "type": "republic",
        "valid_from": "1947-08-15",
        "valid_to": "9999-12-31",
        "status": "independent",
        "certainty": "high",
        "capital": "New Delhi",
        "source": "Natural Earth",
        "predecessor": "British India",
        "description": "Republic of India, independent since 1947."
      },
      "geometry": {
        "type": "Polygon",
        "coordinates": [[
          [68, 8], [70, 8], [77, 8], [80, 8], [82, 8], [80, 14],
          [80, 22], [86, 23], [92, 22], [97, 28], [97, 32],
          [77, 34], [76, 36], [72, 34], [68, 30], [68, 22], [68, 8]
        ]]
      }
    },
    {
      "type": "Feature",
      "properties": {
        "id": "qing_china",
        "name": "Qing China",
        "type": "empire",
        "valid_from": "1886-01-01",
        "valid_to": "1912-02-12",
        "status": "independent",
        "certainty": "high",
        "capital": "Beijing",
        "source": "CShapes 2.0",
        "successor": "Republic of China",
        "description": "Last imperial dynasty of China, ruled by the Manchu Qing house."
      },
      "geometry": {
        "type": "Polygon",
        "coordinates": [[
          [73, 18], [80, 26], [88, 28], [92, 28], [100, 22], [104, 22],
          [106, 22], [110, 20], [117, 20], [122, 22], [122, 26],
          [122, 30], [120, 34], [122, 40], [120, 42], [118, 48],
          [116, 50], [104, 52], [90, 52], [80, 50], [73, 42],
          [73, 36], [73, 28], [73, 18]
        ]]
      }
    },
    {
      "type": "Feature",
      "properties": {
        "id": "prc",
        "name": "People's Republic of China",
        "type": "republic",
        "valid_from": "1949-10-01",
        "valid_to": "9999-12-31",
        "status": "independent",
        "certainty": "high",
        "capital": "Beijing",
        "source": "Natural Earth",
        "predecessor": "Republic of China",
        "description": "PRC, established 1949 after the Communist victory in the civil war."
      },
      "geometry": {
        "type": "Polygon",
        "coordinates": [[
          [73, 18], [80, 26], [88, 28], [92, 28], [100, 22], [104, 22],
          [106, 22], [110, 20], [117, 20], [122, 22], [122, 26],
          [122, 30], [120, 34], [122, 40], [120, 42], [118, 48],
          [116, 50], [104, 52], [90, 52], [80, 50], [73, 42],
          [73, 36], [73, 28], [73, 18]
        ]]
      }
    },
    {
      "type": "Feature",
      "properties": {
        "id": "france",
        "name": "France",
        "type": "republic",
        "valid_from": "1886-01-01",
        "valid_to": "9999-12-31",
        "status": "independent",
        "certainty": "high",
        "capital": "Paris",
        "source": "CShapes 2.0 / Natural Earth",
        "description": "France (metropolitan), excluding overseas territories."
      },
      "geometry": {
        "type": "Polygon",
        "coordinates": [[
          [-4, 43], [-2, 43], [2, 43], [6, 43], [8, 44], [8, 48],
          [8, 50], [2, 51], [-2, 51], [-4, 48], [-4, 44], [-4, 43]
        ]]
      }
    },
    {
      "type": "Feature",
      "properties": {
        "id": "uk",
        "name": "United Kingdom",
        "type": "constitutional monarchy",
        "valid_from": "1886-01-01",
        "valid_to": "9999-12-31",
        "status": "independent",
        "certainty": "high",
        "capital": "London",
        "source": "CShapes 2.0 / Natural Earth",
        "description": "Great Britain and Northern Ireland."
      },
      "geometry": {
        "type": "Polygon",
        "coordinates": [[
          [-6, 50], [-5, 50], [-2, 50], [2, 51], [2, 53], [0, 55],
          [-2, 57], [-4, 58], [-6, 58], [-5, 56], [-4, 54],
          [-5, 52], [-6, 52], [-6, 50]
        ]]
      }
    },
    {
      "type": "Feature",
      "properties": {
        "id": "japan",
        "name": "Japan",
        "type": "constitutional monarchy",
        "valid_from": "1886-01-01",
        "valid_to": "9999-12-31",
        "status": "independent",
        "certainty": "high",
        "capital": "Tokyo",
        "source": "CShapes 2.0 / Natural Earth",
        "description": "Japanese archipelago."
      },
      "geometry": {
        "type": "Polygon",
        "coordinates": [[
          [130, 31], [131, 32], [132, 34], [134, 34], [136, 35],
          [138, 36], [141, 38], [141, 40], [141, 42], [140, 44],
          [136, 44], [132, 34], [130, 32], [130, 31]
        ]]
      }
    },
    {
      "type": "Feature",
      "properties": {
        "id": "colonial_africa_uk",
        "name": "British East Africa",
        "type": "colony",
        "valid_from": "1886-01-01",
        "valid_to": "1963-12-31",
        "status": "colonial",
        "certainty": "medium",
        "capital": "Nairobi",
        "source": "CShapes 2.0",
        "successor": "Kenya",
        "description": "British colonial territory in East Africa (Kenya, Uganda, Tanganyika)."
      },
      "geometry": {
        "type": "Polygon",
        "coordinates": [[
          [34, -2], [36, -4], [40, -10], [40, -4], [42, 2],
          [42, 4], [38, 6], [34, 4], [30, 2], [30, -2], [34, -2]
        ]]
      }
    },
    {
      "type": "Feature",
      "properties": {
        "id": "kenya",
        "name": "Kenya",
        "type": "republic",
        "valid_from": "1963-12-12",
        "valid_to": "9999-12-31",
        "status": "independent",
        "certainty": "high",
        "capital": "Nairobi",
        "source": "Natural Earth",
        "predecessor": "British East Africa",
        "description": "Republic of Kenya, independent since 1963."
      },
      "geometry": {
        "type": "Polygon",
        "coordinates": [[
          [34, -2], [36, -4], [40, -4], [42, 2], [42, 4],
          [38, 6], [34, 4], [30, 2], [30, -2], [34, -2]
        ]]
      }
    },
    {
      "type": "Feature",
      "properties": {
        "id": "brazil",
        "name": "Brazil",
        "type": "republic",
        "valid_from": "1886-01-01",
        "valid_to": "9999-12-31",
        "status": "independent",
        "certainty": "high",
        "capital": "Rio de Janeiro / Brasília",
        "source": "CShapes 2.0 / Natural Earth",
        "description": "Federative Republic of Brazil, largest country in South America."
      },
      "geometry": {
        "type": "Polygon",
        "coordinates": [[
          [-48, 5], [-44, 3], [-36, -4], [-36, -10], [-38, -14],
          [-38, -18], [-40, -22], [-44, -24], [-50, -26], [-56, -26],
          [-60, -24], [-66, -22], [-70, -18], [-72, -14], [-74, -10],
          [-74, -6], [-70, -2], [-66, 0], [-60, 2], [-52, 4], [-48, 5]
        ]]
      }
    },
    {
      "type": "Feature",
      "properties": {
        "id": "colonial_french_west_africa",
        "name": "French West Africa",
        "type": "colony",
        "valid_from": "1895-01-01",
        "valid_to": "1960-12-31",
        "status": "colonial",
        "certainty": "medium",
        "capital": "Dakar",
        "source": "CShapes 2.0",
        "successor": "Senegal",
        "description": "Federation of French colonial territories in West Africa."
      },
      "geometry": {
        "type": "Polygon",
        "coordinates": [[
          [-18, 16], [-16, 12], [-14, 10], [-10, 8], [-4, 6],
          [0, 6], [4, 8], [4, 12], [4, 16], [0, 20], [-4, 22],
          [-10, 22], [-16, 20], [-18, 18], [-18, 16]
        ]]
      }
    }
  ]
}
